STARLINK-31974          
1 59885U 24100A   26068.21066101  .00000158  00000+0  15241-4 0  9991
2 59885  42.9979 128.0999 0000752 191.7836 168.2999 15.27569115100988
TEVEL2-1                
1 63217U 25052H   26068.64782323  .00020683  00000+0  70600-3 0  9994
2 63217  97.3991 324.7682 0004767 104.8919 255.2849 15.30341923 54855
